ORBCOMM-X [-]           
1 21576U 91050C   23241.74450880  .00000345  00000+0  11796-3 0  9992
2 21576  98.4298 308.1686 0004022  29.4415 330.7001 14.42153431687326
ORBCOMM FM01 [-]        
1 23545U 95017A   23242.36264106  .00003318  00000+0  48920-3 0  9992
2 23545  69.9663 252.0541 0007765 249.7085 110.3228 14.76232020515521
ORBCOMM FM02 [-]        
1 23546U 95017B   23241.63853027  .00004060  00000+0  60426-3 0  9998
2 23546  69.9691 272.7608 0009229 241.6991 118.3225 14.75638596514723
ORBCOMM FM08 [-]        
1 25112U 97084A   23241.40790791  .00001181  00000+0  40669-3 0  9996
2 25112  45.0151 272.7706 0007531 187.3114 172.7626 14.41147770346348
ORBCOMM FM10 [-]        
1 25113U 97084B   23241.40274307  .00000984  00000+0  34677-3 0  9999
2 25113  45.0162 274.4898 0004198 166.4748 193.6215 14.41095088521490
ORBCOMM FM11 [+]        
1 25114U 97084C   23241.40121464  .00001022  00000+0  35936-3 0  9998
2 25114  45.0146 274.3729 0004939 163.0805 197.0210 14.40985102346464
ORBCOMM FM12 [-]        
1 25115U 97084D   23242.11981409  .00001088  00000+0  37961-3 0  9993
2 25115  45.0152 270.5870 0004086 173.7279 186.3623 14.40983771346608
ORBCOMM FM09 [-]        
1 25116U 97084E   23242.12605357  .00001071  00000+0  37461-3 0  9997
2 25116  45.0157 271.1812 0004523 147.9909 212.1216 14.40963663346600
